{"type":"FeatureCollection","features":[{"type":"Feature","properties":{"osm_id":6728830,"district":1,"name":"منطقه ۱ شهر تهران","name_en":"District 1","center_lat":35.809858,"center_lng":51.459439},"geometry":{"type":"Polygon","coordinates":[[[51.516136,35.811834],[51.518537,35.812618],[51.521057,35.81256],[51.520612,35.810806],[51.522148,35.810568],[51.522271,35.81008],[51.52404,35.80889],[51.530353,35.815565],[51.531654,35.815247],[51.533026,35.81597],[51.534392,35.815931],[51.533895,35.814737],[51.53274,35.813896],[51.533451,35.81336],[51.533029,35.812184],[51.531723,35.812582],[51.532168,35.81014],[51.532738,35.810054],[51.533021,35.809103],[51.535972,35.808841],[51.538543,35.809736],[51.537051,35.808048],[51.536929,35.807076],[51.537605,35.80637],[51.537573,35.805421],[51.536361,35.805191],[51.536889,35.802841],[51.536698,35.799506],[51.537071,35.7995],[51.537285,35.798907],[51.538372,35.798665],[51.53775,35.798029],[51.537793,35.797405],[51.539201,35.795987],[51.537638,35.795192],[51.536124,35.795855],[51.535807,35.795367],[51.535302,35.795487],[51.535082,35.794664],[51.535406,35.793763],[51.536043,35.794217],[51.53828,35.793957],[51.538284,35.792366],[51.534294,35.791807],[51.530279,35.791882],[51.52846,35.787086],[51.52727,35.777302],[51.521722,35.777593],[51.518944,35.778782],[51.513483,35.782428],[51.502813,35.785518],[51.499133,35.78628],[51.491746,35.785679],[51.484748,35.788397],[51.480607,35.790203],[51.478909,35.790468],[51.476425,35.790211],[51.473391,35.790407],[51.463002,35.793002],[51.460796,35.793201],[51.457476,35.792088],[51.451681,35.788635],[51.445941,35.786307],[51.436086,35.783876],[51.431643,35.779988],[51.427816,35.778509],[51.426209,35.781053],[51.422237,35.78524],[51.420088,35.788975],[51.418393,35.790187],[51.416254,35.790915],[51.410499,35.791947],[51.407286,35.791882],[51.40558,35.792512],[51.403719,35.793634],[51.402378,35.79381],[51.393674,35.790866],[51.392254,35.789767],[51.39156,35.791107],[51.38991,35.792352],[51.387472,35.792885],[51.385112,35.792639],[51.386729,35.795811],[51.387197,35.796642],[51.386174,35.798844],[51.386134,35.799635],[51.385447,35.800475],[51.382692,35.8017],[51.380906,35.803679],[51.379002,35.804701],[51.376311,35.805478],[51.37518,35.806478],[51.375752,35.806694],[51.375542,35.806978],[51.375827,35.807163],[51.376139,35.806835],[51.37748,35.807339],[51.380769,35.809945],[51.380819,35.810407],[51.38218,35.810674],[51.381885,35.81181],[51.382126,35.81257],[51.382787,35.812459],[51.383415,35.811495],[51.38386,35.811448],[51.383502,35.810651],[51.384391,35.809701],[51.384764,35.808256],[51.387651,35.808498],[51.38805,35.81081],[51.392764,35.812445],[51.392836,35.81302],[51.394368,35.813296],[51.3949,35.812874],[51.40229,35.813576],[51.40298,35.815697],[51.403525,35.816289],[51.403155,35.816519],[51.403703,35.816813],[51.404936,35.816897],[51.404991,35.815428],[51.406234,35.815216],[51.410506,35.815706],[51.41096,35.816161],[51.412153,35.816257],[51.412831,35.816613],[51.412298,35.816981],[51.413059,35.817541],[51.413667,35.816901],[51.414907,35.817655],[51.415384,35.816828],[51.416599,35.816352],[51.418083,35.816637],[51.418733,35.817701],[51.419417,35.817997],[51.419425,35.818563],[51.420044,35.818877],[51.419846,35.819679],[51.420661,35.819786],[51.420546,35.82076],[51.421249,35.821363],[51.422068,35.821117],[51.422616,35.820351],[51.423046,35.821001],[51.423935,35.820743],[51.423355,35.821826],[51.423834,35.823915],[51.423535,35.824771],[51.425426,35.825666],[51.426083,35.827527],[51.426878,35.827472],[51.427519,35.826597],[51.427649,35.8252],[51.430446,35.823519],[51.432098,35.822329],[51.435054,35.824631],[51.436315,35.823754],[51.435952,35.823405],[51.436089,35.82261],[51.435591,35.822619],[51.435759,35.821323],[51.437769,35.82024],[51.441981,35.81933],[51.446851,35.819126],[51.447466,35.818031],[51.448641,35.81816],[51.448393,35.817226],[51.450838,35.817215],[51.45141,35.818367],[51.451136,35.818614],[51.454435,35.819219],[51.456808,35.82036],[51.458159,35.822617],[51.459297,35.822715],[51.459911,35.823182],[51.463028,35.823232],[51.464228,35.825924],[51.461865,35.826494],[51.462816,35.827129],[51.462395,35.828196],[51.463389,35.828446],[51.464416,35.82733],[51.467008,35.827634],[51.467902,35.827231],[51.469026,35.823674],[51.47144,35.822464],[51.472647,35.82127],[51.474818,35.820744],[51.476118,35.820874],[51.475919,35.821184],[51.477059,35.821599],[51.478036,35.821428],[51.478763,35.820931],[51.480932,35.820606],[51.483913,35.818888],[51.487736,35.819143],[51.487965,35.820457],[51.488738,35.820197],[51.49012,35.82208],[51.491476,35.822977],[51.491789,35.82282],[51.491679,35.821229],[51.492953,35.820673],[51.493597,35.819274],[51.496079,35.817125],[51.497524,35.817243],[51.497461,35.815984],[51.498112,35.815716],[51.497885,35.815222],[51.498621,35.814693],[51.499747,35.815051],[51.500465,35.815907],[51.501583,35.816186],[51.504661,35.815665],[51.505627,35.814633],[51.507421,35.815453],[51.506406,35.816938],[51.507622,35.81757],[51.50822,35.818764],[51.508981,35.818476],[51.509832,35.815471],[51.511094,35.815051],[51.511942,35.813909],[51.513474,35.814444],[51.514851,35.813949],[51.51565,35.81214],[51.516136,35.811834]]]}},{"type":"Feature","properties":{"osm_id":6728896,"district":2,"name":"منطقه ۲ شهر تهران","name_en":"District 2","center_lat":35.773859,"center_lng":51.363474},"geometry":{"type":"Polygon","coordinates":[[[51.371669,35.794629],[51.37211,35.795445],[51.372958,35.795228],[51.375604,35.792863],[51.377337,35.793688],[51.377834,35.793247],[51.378251,35.794091],[51.37883,35.794261],[51.379577,35.792803],[51.380311,35.79332],[51.380982,35.792833],[51.382371,35.793017],[51.38344,35.793382],[51.384609,35.794666],[51.383997,35.795577],[51.384771,35.795721],[51.385363,35.796466],[51.385656,35.798369],[51.386174,35.798844],[51.387197,35.796642],[51.386729,35.795811],[51.385112,35.792639],[51.387472,35.792885],[51.38991,35.792352],[51.39156,35.791107],[51.392254,35.789767],[51.391869,35.7882],[51.393135,35.782012],[51.393006,35.780175],[51.3909,35.776669],[51.388017,35.772193],[51.387513,35.770626],[51.387411,35.768346],[51.388635,35.760852],[51.388438,35.759403],[51.386883,35.756121],[51.386178,35.752731],[51.386082,35.750309],[51.38561,35.74639],[51.383934,35.74295],[51.383463,35.7395],[51.383214,35.728598],[51.381401,35.724967],[51.379599,35.722171],[51.378366,35.719218],[51.377921,35.711983],[51.377614,35.705599],[51.378109,35.700658],[51.365436,35.700369],[51.362997,35.700308],[51.359898,35.700234],[51.355055,35.700129],[51.347355,35.699962],[51.341523,35.699802],[51.340041,35.701516],[51.337806,35.702042],[51.336124,35.712358],[51.335734,35.714582],[51.335892,35.717859],[51.335263,35.722136],[51.334732,35.726656],[51.332994,35.740237],[51.33191,35.751119],[51.337345,35.765808],[51.33754,35.768609],[51.337136,35.770577],[51.335887,35.77837],[51.34021,35.780114],[51.341168,35.781992],[51.341622,35.783298],[51.341677,35.785677],[51.340497,35.788516],[51.340747,35.790207],[51.340231,35.79126],[51.340777,35.793351],[51.340567,35.794281],[51.341585,35.795899],[51.341033,35.797198],[51.341744,35.798681],[51.341914,35.798363],[51.342899,35.798581],[51.34292,35.796832],[51.342235,35.796742],[51.342409,35.796105],[51.343363,35.796604],[51.344329,35.796251],[51.34437,35.795001],[51.346429,35.795237],[51.345735,35.794834],[51.344622,35.793022],[51.34851,35.793167],[51.350069,35.794517],[51.350761,35.794828],[51.351535,35.794483],[51.352347,35.795287],[51.354499,35.794879],[51.355511,35.795854],[51.357365,35.796786],[51.359011,35.79906],[51.359535,35.801657],[51.35917,35.802639],[51.359659,35.803642],[51.361606,35.803704],[51.362466,35.80095],[51.363697,35.799621],[51.364631,35.79943],[51.365604,35.798019],[51.365965,35.798265],[51.366507,35.797915],[51.366835,35.797224],[51.36905,35.795603],[51.371669,35.794629]]]}},{"type":"Feature","properties":{"osm_id":6728897,"district":3,"name":"منطقه ۳ شهر تهران","name_en":"District 3","center_lat":35.770009,"center_lng":51.424822},"geometry":{"type":"Polygon","coordinates":[[[51.446889,35.741951],[51.443594,35.742618],[51.435727,35.742504],[51.43125,35.740615],[51.422705,35.740243],[51.42241,35.746932],[51.421305,35.749653],[51.418285,35.75136],[51.41623,35.752035],[51.414229,35.752185],[51.411354,35.751663],[51.405295,35.751329],[51.404261,35.751309],[51.396779,35.751077],[51.386082,35.750309],[51.386178,35.752731],[51.386883,35.756121],[51.388438,35.759403],[51.388635,35.760852],[51.387411,35.768346],[51.387513,35.770626],[51.388017,35.772193],[51.3909,35.776669],[51.393006,35.780175],[51.393135,35.782012],[51.391869,35.7882],[51.392254,35.789767],[51.393674,35.790866],[51.402378,35.79381],[51.403719,35.793634],[51.40558,35.792512],[51.407286,35.791882],[51.410499,35.791947],[51.416254,35.790915],[51.418393,35.790187],[51.420088,35.788975],[51.422237,35.78524],[51.426209,35.781053],[51.427816,35.778509],[51.431643,35.779988],[51.436086,35.783876],[51.445941,35.786307],[51.451681,35.788635],[51.457476,35.792088],[51.460796,35.793201],[51.463002,35.793002],[51.473391,35.790407],[51.476425,35.790211],[51.47312,35.786918],[51.470369,35.785943],[51.468118,35.781391],[51.466568,35.778057],[51.456044,35.765843],[51.455323,35.763438],[51.453823,35.76041],[51.452313,35.753865],[51.448892,35.751926],[51.449453,35.747338],[51.447181,35.743349],[51.446889,35.741951]]]}},{"type":"Feature","properties":{"osm_id":6728863,"district":4,"name":"منطقه ۴ شهر تهران","name_en":"District 4","center_lat":35.753123,"center_lng":51.522987},"geometry":{"type":"Polygon","coordinates":[[[51.476425,35.790211],[51.47312,35.786918],[51.470369,35.785943],[51.468118,35.781391],[51.466568,35.778057],[51.456044,35.765843],[51.455323,35.763438],[51.453823,35.76041],[51.452313,35.753865],[51.448892,35.751926],[51.449453,35.747338],[51.447181,35.743349],[51.446889,35.741951],[51.457822,35.741111],[51.460711,35.741257],[51.46367,35.740523],[51.466847,35.740346],[51.471464,35.739694],[51.483225,35.737531],[51.488397,35.736708],[51.494822,35.735718],[51.502151,35.734782],[51.517671,35.732744],[51.536133,35.730177],[51.537401,35.729339],[51.538055,35.72835],[51.538594,35.724897],[51.557291,35.726184],[51.563043,35.725968],[51.570966,35.724294],[51.583407,35.723712],[51.586229,35.72433],[51.587999,35.723535],[51.587575,35.724466],[51.588558,35.725883],[51.588303,35.726264],[51.59202,35.728695],[51.596065,35.732258],[51.601557,35.735956],[51.60479,35.740282],[51.606301,35.744033],[51.60085,35.74561],[51.594096,35.748221],[51.588514,35.748455],[51.586622,35.748916],[51.579553,35.75212],[51.578167,35.753064],[51.574433,35.758559],[51.567619,35.76384],[51.557254,35.770124],[51.544208,35.77469],[51.537547,35.776547],[51.530895,35.777203],[51.52727,35.777302],[51.521722,35.777593],[51.518944,35.778782],[51.513483,35.782428],[51.502813,35.785518],[51.499133,35.78628],[51.491746,35.785679],[51.484748,35.788397],[51.480607,35.790203],[51.478909,35.790468],[51.476425,35.790211]]]}},{"type":"Feature","properties":{"osm_id":6729507,"district":5,"name":"منطقه ۵ شهر تهران","name_en":"District 5","center_lat":35.774105,"center_lng":51.304565},"geometry":{"type":"Polygon","coordinates":[[[51.341168,35.781992],[51.34021,35.780114],[51.335887,35.77837],[51.337136,35.770577],[51.33754,35.768609],[51.337345,35.765808],[51.33191,35.751119],[51.332994,35.740237],[51.334732,35.726656],[51.335263,35.722136],[51.335892,35.717859],[51.335734,35.714582],[51.336124,35.712358],[51.337806,35.702042],[51.335152,35.701298],[51.334337,35.699656],[51.321708,35.699378],[51.315972,35.699166],[51.312193,35.699095],[51.3116,35.696681],[51.312044,35.699093],[51.300547,35.698972],[51.289963,35.700924],[51.290529,35.705057],[51.290272,35.706904],[51.291495,35.707967],[51.291302,35.712462],[51.290851,35.713996],[51.29115,35.716372],[51.289881,35.718855],[51.280611,35.730771],[51.275461,35.733593],[51.269109,35.739601],[51.267843,35.739306],[51.266298,35.742736],[51.265101,35.743112],[51.265974,35.746187],[51.268482,35.754609],[51.268037,35.755858],[51.268299,35.756291],[51.268557,35.757326],[51.266776,35.760725],[51.267066,35.761648],[51.266636,35.763468],[51.265016,35.765923],[51.263472,35.767463],[51.262623,35.770749],[51.263977,35.776531],[51.263581,35.778396],[51.262285,35.780359],[51.262396,35.781515],[51.262029,35.78209],[51.262288,35.782353],[51.262809,35.781961],[51.265741,35.78264],[51.267951,35.783875],[51.269199,35.782516],[51.270885,35.782967],[51.271705,35.782362],[51.272668,35.782561],[51.272811,35.781497],[51.273995,35.781028],[51.272816,35.779725],[51.273862,35.779563],[51.274294,35.779958],[51.275911,35.780157],[51.277039,35.781224],[51.27778,35.783757],[51.278228,35.783663],[51.278483,35.784139],[51.278282,35.784677],[51.27913,35.784011],[51.279248,35.78293],[51.280329,35.783186],[51.280051,35.782132],[51.281083,35.781429],[51.280843,35.78075],[51.282612,35.780509],[51.283312,35.781188],[51.283913,35.780797],[51.285783,35.781862],[51.286144,35.780653],[51.285798,35.780104],[51.287131,35.779438],[51.287483,35.779675],[51.287402,35.780191],[51.288035,35.780576],[51.288724,35.779888],[51.289337,35.780006],[51.289061,35.780492],[51.289607,35.781573],[51.290308,35.780987],[51.290193,35.780583],[51.290981,35.780024],[51.291348,35.780273],[51.291397,35.781397],[51.289613,35.783505],[51.289747,35.784718],[51.290696,35.784095],[51.291576,35.784088],[51.291987,35.783574],[51.293426,35.783468],[51.293707,35.782915],[51.293389,35.781575],[51.29553,35.781218],[51.295359,35.779658],[51.29476,35.778704],[51.296053,35.778611],[51.298326,35.778813],[51.300765,35.779607],[51.301902,35.780342],[51.301956,35.781247],[51.302826,35.782091],[51.304015,35.782605],[51.303835,35.784967],[51.303417,35.785171],[51.303303,35.786547],[51.302281,35.787691],[51.302016,35.788881],[51.302754,35.790331],[51.302873,35.788508],[51.306083,35.785324],[51.307027,35.785974],[51.308947,35.785382],[51.30827,35.787149],[51.309373,35.787848],[51.310821,35.787171],[51.313105,35.786849],[51.313952,35.787336],[51.314478,35.788344],[51.316639,35.787879],[51.317125,35.78743],[51.318214,35.788901],[51.319571,35.787928],[51.322467,35.788205],[51.32271,35.78883],[51.322002,35.789398],[51.323177,35.790408],[51.323017,35.790988],[51.324531,35.791018],[51.324768,35.792833],[51.32607,35.79269],[51.326514,35.79352],[51.327218,35.792829],[51.326906,35.794053],[51.328467,35.793485],[51.328649,35.79417],[51.330981,35.792723],[51.332683,35.791899],[51.334019,35.79244],[51.334546,35.79352],[51.335863,35.79354],[51.335919,35.795663],[51.337139,35.798079],[51.335479,35.79806],[51.335624,35.798568],[51.338407,35.802431],[51.337502,35.802995],[51.337126,35.803864],[51.337937,35.804911],[51.337865,35.806854],[51.337184,35.808268],[51.337795,35.808972],[51.337952,35.809996],[51.338276,35.810034],[51.338532,35.808924],[51.33959,35.808116],[51.340593,35.807037],[51.340683,35.804509],[51.341663,35.802875],[51.3413,35.801701],[51.341913,35.799504],[51.341217,35.798719],[51.341744,35.798681],[51.341033,35.797198],[51.341585,35.795899],[51.340567,35.794281],[51.340777,35.793351],[51.340231,35.79126],[51.340747,35.790207],[51.340497,35.788516],[51.341677,35.785677],[51.341622,35.783298],[51.341168,35.781992]]]}},{"type":"Feature","properties":{"osm_id":6729037,"district":6,"name":"منطقه ۶ شهر تهران","name_en":"District 6","center_lat":35.728636,"center_lng":51.405567},"geometry":{"type":"Polygon","coordinates":[[[51.386082,35.750309],[51.38561,35.74639],[51.383934,35.74295],[51.383463,35.7395],[51.383214,35.728598],[51.381401,35.724967],[51.379599,35.722171],[51.378366,35.719218],[51.377921,35.711983],[51.377614,35.705599],[51.378109,35.700658],[51.384264,35.700785],[51.391125,35.700904],[51.405185,35.701225],[51.41287,35.701386],[51.419004,35.701518],[51.426027,35.70167],[51.425488,35.711154],[51.426173,35.715412],[51.4275,35.718965],[51.426714,35.720812],[51.425411,35.722298],[51.424901,35.724146],[51.424095,35.726497],[51.421377,35.729316],[51.420347,35.731636],[51.420489,35.732759],[51.421908,35.735866],[51.422705,35.740243],[51.42241,35.746932],[51.421305,35.749653],[51.418285,35.75136],[51.41623,35.752035],[51.414229,35.752185],[51.411354,35.751663],[51.405295,35.751329],[51.404261,35.751309],[51.396779,35.751077],[51.386082,35.750309]]]}},{"type":"Feature","properties":{"osm_id":6729036,"district":7,"name":"منطقه ۷ شهر تهران","name_en":"District 7","center_lat":35.723366,"center_lng":51.443139},"geometry":{"type":"Polygon","coordinates":[[[51.426173,35.715412],[51.4275,35.718965],[51.426714,35.720812],[51.425411,35.722298],[51.424901,35.724146],[51.424095,35.726497],[51.421377,35.729316],[51.420347,35.731636],[51.420489,35.732759],[51.421908,35.735866],[51.422705,35.740243],[51.43125,35.740615],[51.435727,35.742504],[51.443594,35.742618],[51.446889,35.741951],[51.457822,35.741111],[51.460711,35.741257],[51.46367,35.740523],[51.466847,35.740346],[51.461321,35.733303],[51.459227,35.730992],[51.458931,35.729918],[51.458898,35.728214],[51.45892,35.72718],[51.46187,35.72231],[51.463361,35.719853],[51.464208,35.718398],[51.46654,35.715154],[51.472286,35.709026],[51.46169,35.705848],[51.457773,35.704734],[51.448098,35.701989],[51.446709,35.701952],[51.438555,35.701842],[51.430062,35.701737],[51.428154,35.701705],[51.426027,35.70167],[51.425488,35.711154],[51.426173,35.715412]]]}},{"type":"Feature","properties":{"osm_id":6729035,"district":8,"name":"منطقه ۸ شهر تهران","name_en":"District 8","center_lat":35.724961,"center_lng":51.488621},"geometry":{"type":"Polygon","coordinates":[[[51.472286,35.709026],[51.478636,35.710971],[51.484428,35.712738],[51.485159,35.712963],[51.494405,35.715833],[51.498965,35.717256],[51.502096,35.718221],[51.518576,35.723323],[51.523768,35.723877],[51.538594,35.724897],[51.538055,35.72835],[51.537401,35.729339],[51.536133,35.730177],[51.517671,35.732744],[51.502151,35.734782],[51.494822,35.735718],[51.488397,35.736708],[51.483225,35.737531],[51.471464,35.739694],[51.466847,35.740346],[51.461321,35.733303],[51.459227,35.730992],[51.458931,35.729918],[51.458898,35.728214],[51.45892,35.72718],[51.46187,35.72231],[51.463361,35.719853],[51.464208,35.718398],[51.46654,35.715154],[51.472286,35.709026]]]}},{"type":"Feature","properties":{"osm_id":6729508,"district":9,"name":"منطقه ۹ شهر تهران","name_en":"District 9","center_lat":35.686911,"center_lng":51.318511},"geometry":{"type":"Polygon","coordinates":[[[51.344667,35.666995],[51.341227,35.666425],[51.335639,35.667343],[51.333417,35.667723],[51.321072,35.669845],[51.308925,35.672236],[51.309447,35.674897],[51.309021,35.6756],[51.27871,35.676637],[51.278749,35.677906],[51.280165,35.68045],[51.28171,35.681322],[51.282354,35.682333],[51.283813,35.683989],[51.283749,35.684616],[51.2851,35.685836],[51.28628,35.686307],[51.287504,35.687945],[51.288276,35.691622],[51.289521,35.694167],[51.289778,35.695561],[51.289392,35.69699],[51.289993,35.697861],[51.289963,35.700924],[51.300547,35.698972],[51.312044,35.699093],[51.3116,35.696681],[51.312193,35.699095],[51.315972,35.699166],[51.321708,35.699378],[51.334337,35.699656],[51.335152,35.701298],[51.337806,35.702042],[51.340041,35.701516],[51.341523,35.699802],[51.347355,35.699962],[51.355055,35.700129],[51.355272,35.696093],[51.355877,35.694675],[51.356496,35.694317],[51.355399,35.689063],[51.354354,35.683585],[51.354538,35.679964],[51.354939,35.676125],[51.352207,35.671042],[51.352459,35.670658],[51.344667,35.666995]]]}},{"type":"Feature","properties":{"osm_id":6729501,"district":10,"name":"منطقه ۱۰ شهر تهران","name_en":"District 10","center_lat":35.683599,"center_lng":51.364544},"geometry":{"type":"Polygon","coordinates":[[[51.378109,35.700658],[51.378661,35.695236],[51.379293,35.69071],[51.380142,35.681824],[51.381544,35.670846],[51.374257,35.668134],[51.373543,35.667967],[51.372431,35.667663],[51.368893,35.667015],[51.365559,35.667422],[51.356969,35.669223],[51.355717,35.669651],[51.352459,35.670658],[51.352207,35.671042],[51.354939,35.676125],[51.354538,35.679964],[51.354354,35.683585],[51.355399,35.689063],[51.356496,35.694317],[51.355877,35.694675],[51.355272,35.696093],[51.355055,35.700129],[51.359898,35.700234],[51.362997,35.700308],[51.365436,35.700369],[51.378109,35.700658]]]}},{"type":"Feature","properties":{"osm_id":6729111,"district":11,"name":"منطقه ۱۱ شهر تهران","name_en":"District 11","center_lat":35.680761,"center_lng":51.393712},"geometry":{"type":"Polygon","coordinates":[[[51.378109,35.700658],[51.378661,35.695236],[51.379293,35.69071],[51.380142,35.681824],[51.381544,35.670846],[51.381667,35.668111],[51.38219,35.659486],[51.384838,35.659227],[51.393096,35.658419],[51.393726,35.659507],[51.404897,35.658433],[51.405578,35.662245],[51.406572,35.667389],[51.407935,35.674614],[51.408876,35.679525],[51.410156,35.686109],[51.412839,35.69945],[51.41287,35.701386],[51.405185,35.701225],[51.391125,35.700904],[51.384264,35.700785],[51.378109,35.700658]]]}},{"type":"Feature","properties":{"osm_id":6729112,"district":12,"name":"منطقه ۱۲ شهر تهران","name_en":"District 12","center_lat":35.678422,"center_lng":51.429163},"geometry":{"type":"Polygon","coordinates":[[[51.445148,35.660849],[51.435089,35.659561],[51.431291,35.659694],[51.430998,35.659341],[51.430418,35.659623],[51.414436,35.658661],[51.41221,35.658504],[51.409452,35.658089],[51.404897,35.658433],[51.405578,35.662245],[51.406572,35.667389],[51.407935,35.674614],[51.408876,35.679525],[51.410156,35.686109],[51.412839,35.69945],[51.41287,35.701386],[51.419004,35.701518],[51.426027,35.70167],[51.428154,35.701705],[51.430062,35.701737],[51.438555,35.701842],[51.446709,35.701952],[51.448098,35.701989],[51.448094,35.700049],[51.447332,35.689665],[51.44679,35.681748],[51.446545,35.678861],[51.446259,35.674831],[51.44618,35.673656],[51.445879,35.668553],[51.445606,35.665407],[51.445148,35.660849]]]}},{"type":"Feature","properties":{"osm_id":6729034,"district":13,"name":"منطقه ۱۳ شهر تهران","name_en":"District 13","center_lat":35.712381,"center_lng":51.533585},"geometry":{"type":"Polygon","coordinates":[[[51.494405,35.715833],[51.498965,35.717256],[51.502096,35.718221],[51.518576,35.723323],[51.523768,35.723877],[51.538594,35.724897],[51.557291,35.726184],[51.563043,35.725968],[51.570966,35.724294],[51.583407,35.723712],[51.586229,35.72433],[51.587999,35.723535],[51.589579,35.723317],[51.596935,35.724128],[51.596952,35.723826],[51.598602,35.723941],[51.598903,35.719752],[51.598125,35.719331],[51.593125,35.719031],[51.589704,35.717924],[51.587364,35.716851],[51.582938,35.717242],[51.581169,35.71588],[51.580116,35.716898],[51.5799,35.716434],[51.579013,35.717194],[51.578257,35.717204],[51.578192,35.716501],[51.576923,35.7171],[51.576414,35.716508],[51.574962,35.717185],[51.57482,35.716494],[51.572649,35.717236],[51.572723,35.715516],[51.568367,35.715426],[51.567869,35.716093],[51.566286,35.715328],[51.564225,35.715112],[51.569441,35.713418],[51.569919,35.711875],[51.569675,35.71113],[51.567846,35.711212],[51.566409,35.712682],[51.563166,35.714531],[51.559085,35.714792],[51.555193,35.717005],[51.550442,35.718098],[51.548908,35.718135],[51.548575,35.717763],[51.548952,35.717114],[51.54562,35.717552],[51.54559,35.71553],[51.544583,35.716294],[51.543329,35.715999],[51.541721,35.715101],[51.541187,35.713904],[51.539391,35.713731],[51.536102,35.714811],[51.527074,35.714687],[51.525513,35.715583],[51.525114,35.717157],[51.520139,35.717604],[51.518241,35.718096],[51.518116,35.718512],[51.516738,35.718259],[51.51358,35.718381],[51.513401,35.717394],[51.512407,35.71698],[51.512155,35.716726],[51.5111,35.712396],[51.512764,35.708306],[51.512832,35.706469],[51.510183,35.704944],[51.508022,35.70422],[51.505663,35.702463],[51.504709,35.702333],[51.502589,35.702025],[51.501109,35.700564],[51.497518,35.695274],[51.494938,35.692922],[51.49333,35.692961],[51.487745,35.692586],[51.48029,35.692038],[51.478636,35.691911],[51.473184,35.6915],[51.465116,35.690854],[51.463476,35.690738],[51.461168,35.690562],[51.457183,35.690336],[51.451954,35.68997],[51.447332,35.689665],[51.448094,35.700049],[51.448098,35.701989],[51.457773,35.704734],[51.46169,35.705848],[51.472286,35.709026],[51.478636,35.710971],[51.484428,35.712738],[51.485159,35.712963],[51.494405,35.715833]]]}},{"type":"Feature","properties":{"osm_id":6729033,"district":14,"name":"منطقه ۱۴ شهر تهران","name_en":"District 14","center_lat":35.670976,"center_lng":51.483964},"geometry":{"type":"Polygon","coordinates":[[[51.447332,35.689665],[51.44679,35.681748],[51.446545,35.678861],[51.446259,35.674831],[51.44618,35.673656],[51.445879,35.668553],[51.445606,35.665407],[51.450202,35.664825],[51.456843,35.660348],[51.460963,35.658937],[51.461441,35.658591],[51.466203,35.659733],[51.469277,35.658938],[51.488209,35.656294],[51.490724,35.662864],[51.50188,35.660319],[51.497553,35.648165],[51.49712,35.646525],[51.499976,35.644775],[51.50163,35.644561],[51.507592,35.644163],[51.510416,35.647062],[51.513665,35.649116],[51.515141,35.651725],[51.516615,35.656571],[51.517275,35.660526],[51.518625,35.663912],[51.521301,35.66701],[51.522817,35.667966],[51.523247,35.669126],[51.513997,35.673043],[51.514243,35.673701],[51.519059,35.677058],[51.505782,35.69016],[51.505574,35.691108],[51.494938,35.692922],[51.49333,35.692961],[51.487745,35.692586],[51.48029,35.692038],[51.478636,35.691911],[51.473184,35.6915],[51.465116,35.690854],[51.463476,35.690738],[51.461168,35.690562],[51.457183,35.690336],[51.451954,35.68997],[51.447332,35.689665]]]}},{"type":"Feature","properties":{"osm_id":6729032,"district":15,"name":"منطقه ۱۵ شهر تهران","name_en":"District 15","center_lat":35.633952,"center_lng":51.479782},"geometry":{"type":"Polygon","coordinates":[[[51.445606,35.665407],[51.450202,35.664825],[51.456843,35.660348],[51.460963,35.658937],[51.461441,35.658591],[51.466203,35.659733],[51.469277,35.658938],[51.488209,35.656294],[51.490724,35.662864],[51.50188,35.660319],[51.497553,35.648165],[51.49712,35.646525],[51.499976,35.644775],[51.50163,35.644561],[51.501088,35.640855],[51.501986,35.637114],[51.504578,35.637461],[51.507882,35.637914],[51.511217,35.63718],[51.511268,35.636032],[51.512061,35.635981],[51.512227,35.634363],[51.508052,35.633925],[51.507864,35.629574],[51.505041,35.623762],[51.50323,35.619669],[51.504584,35.615383],[51.504368,35.61426],[51.503561,35.613155],[51.501351,35.61574],[51.498495,35.614021],[51.499617,35.612931],[51.498747,35.612533],[51.49886,35.612179],[51.502843,35.608662],[51.502225,35.607557],[51.50052,35.606345],[51.498413,35.605744],[51.493916,35.608625],[51.492979,35.607979],[51.487203,35.610782],[51.480217,35.613965],[51.47772,35.612544],[51.472865,35.617994],[51.471527,35.617947],[51.471218,35.617357],[51.460272,35.625113],[51.457329,35.626869],[51.453106,35.62861],[51.452466,35.629511],[51.444304,35.629293],[51.436354,35.627475],[51.436072,35.62991],[51.435727,35.633175],[51.434159,35.645549],[51.433452,35.650914],[51.430998,35.659341],[51.431291,35.659694],[51.435089,35.659561],[51.445148,35.660849],[51.445606,35.665407]]]}},{"type":"Feature","properties":{"osm_id":6729110,"district":16,"name":"منطقه ۱۶ شهر تهران","name_en":"District 16","center_lat":35.640927,"center_lng":51.409342},"geometry":{"type":"Polygon","coordinates":[[[51.436354,35.627475],[51.432888,35.626139],[51.428114,35.62361],[51.421025,35.618262],[51.418562,35.61673],[51.414473,35.615233],[51.408273,35.614458],[51.403257,35.614429],[51.404715,35.619886],[51.392913,35.637536],[51.393407,35.637902],[51.392355,35.638198],[51.391025,35.639471],[51.391572,35.640989],[51.393564,35.645019],[51.388831,35.649927],[51.382839,35.653635],[51.382096,35.655385],[51.38219,35.659486],[51.384838,35.659227],[51.393096,35.658419],[51.393726,35.659507],[51.404897,35.658433],[51.409452,35.658089],[51.41221,35.658504],[51.414436,35.658661],[51.430418,35.659623],[51.430998,35.659341],[51.433452,35.650914],[51.434159,35.645549],[51.435727,35.633175],[51.436072,35.62991],[51.436354,35.627475]]]}},{"type":"Feature","properties":{"osm_id":6729502,"district":17,"name":"منطقه ۱۷ شهر تهران","name_en":"District 17","center_lat":35.657561,"center_lng":51.364854},"geometry":{"type":"Polygon","coordinates":[[[51.379051,35.654286],[51.375487,35.653358],[51.373076,35.651638],[51.371968,35.650376],[51.369568,35.645124],[51.366689,35.64251],[51.363675,35.640244],[51.356563,35.636658],[51.354846,35.637668],[51.353159,35.641223],[51.349546,35.650127],[51.347336,35.655364],[51.344834,35.661621],[51.343973,35.663739],[51.344179,35.665513],[51.344667,35.666995],[51.352459,35.670658],[51.355717,35.669651],[51.356969,35.669223],[51.365559,35.667422],[51.368893,35.667015],[51.372431,35.667663],[51.373543,35.667967],[51.374257,35.668134],[51.381544,35.670846],[51.381667,35.668111],[51.38219,35.659486],[51.382096,35.655385],[51.380623,35.654554],[51.379051,35.654286]]]}},{"type":"Feature","properties":{"osm_id":6729503,"district":18,"name":"منطقه ۱۸ شهر تهران","name_en":"District 18","center_lat":35.65526,"center_lng":51.30439},"geometry":{"type":"Polygon","coordinates":[[[51.285098,35.644715],[51.301173,35.636969],[51.311495,35.631762],[51.31559,35.629418],[51.318882,35.626857],[51.324844,35.620097],[51.327247,35.621564],[51.333985,35.627013],[51.338065,35.62906],[51.343985,35.632079],[51.348075,35.634181],[51.351757,35.635794],[51.35481,35.636075],[51.356563,35.636658],[51.354846,35.637668],[51.353159,35.641223],[51.349546,35.650127],[51.347336,35.655364],[51.344834,35.661621],[51.343973,35.663739],[51.344179,35.665513],[51.344667,35.666995],[51.341227,35.666425],[51.335639,35.667343],[51.333417,35.667723],[51.321072,35.669845],[51.308925,35.672236],[51.309447,35.674897],[51.309021,35.6756],[51.27871,35.676637],[51.269732,35.67723],[51.260876,35.67858],[51.241389,35.681495],[51.238136,35.682044],[51.23335,35.683573],[51.230818,35.679319],[51.230453,35.676861],[51.230986,35.672343],[51.233131,35.668003],[51.235883,35.664999],[51.239587,35.662467],[51.251696,35.657826],[51.280447,35.646773],[51.285098,35.644715]]]}},{"type":"Feature","properties":{"osm_id":6729109,"district":19,"name":"منطقه ۱۹ شهر تهران","name_en":"District 19","center_lat":35.630733,"center_lng":51.36622},"geometry":{"type":"Polygon","coordinates":[[[51.338065,35.62906],[51.333985,35.627013],[51.327247,35.621564],[51.324844,35.620097],[51.329904,35.614591],[51.334381,35.610488],[51.33763,35.609248],[51.340581,35.608122],[51.343451,35.607846],[51.348819,35.60756],[51.356566,35.608827],[51.366226,35.611874],[51.373025,35.613619],[51.379763,35.614116],[51.390327,35.61359],[51.40025,35.614106],[51.403257,35.614429],[51.404715,35.619886],[51.392913,35.637536],[51.393407,35.637902],[51.392355,35.638198],[51.391025,35.639471],[51.391572,35.640989],[51.393564,35.645019],[51.388831,35.649927],[51.382839,35.653635],[51.382096,35.655385],[51.380623,35.654554],[51.379051,35.654286],[51.375487,35.653358],[51.373076,35.651638],[51.371968,35.650376],[51.369568,35.645124],[51.366689,35.64251],[51.363675,35.640244],[51.356563,35.636658],[51.35481,35.636075],[51.351757,35.635794],[51.348075,35.634181],[51.343985,35.632079],[51.338065,35.62906]]]}},{"type":"Feature","properties":{"osm_id":6729031,"district":20,"name":"منطقه ۲۰ شهر تهران","name_en":"District 20","center_lat":35.592013,"center_lng":51.436437},"geometry":{"type":"Polygon","coordinates":[[[51.456616,35.610212],[51.463273,35.612874],[51.468864,35.614565],[51.471218,35.617357],[51.460272,35.625113],[51.457329,35.626869],[51.453106,35.62861],[51.452466,35.629511],[51.444304,35.629293],[51.436354,35.627475],[51.432888,35.626139],[51.428114,35.62361],[51.421025,35.618262],[51.418562,35.61673],[51.414473,35.615233],[51.408273,35.614458],[51.403257,35.614429],[51.40025,35.614106],[51.402175,35.612394],[51.404573,35.610935],[51.407418,35.610738],[51.40575,35.605181],[51.40741,35.604873],[51.408018,35.604266],[51.407635,35.603158],[51.409242,35.603275],[51.410193,35.60289],[51.412075,35.598835],[51.413237,35.597524],[51.41551,35.592163],[51.416503,35.592196],[51.417023,35.591103],[51.417012,35.58678],[51.416936,35.584673],[51.417393,35.58321],[51.416227,35.582949],[51.416777,35.580558],[51.41739,35.580048],[51.417064,35.579622],[51.417703,35.579144],[51.417424,35.578928],[51.417838,35.578322],[51.417446,35.575485],[51.418185,35.574906],[51.418637,35.574553],[51.419535,35.57385],[51.419362,35.573452],[51.4203,35.571314],[51.426243,35.572664],[51.426667,35.57276],[51.42547,35.578445],[51.425812,35.578434],[51.427034,35.580227],[51.42806,35.57985],[51.428437,35.58026],[51.426954,35.582027],[51.429458,35.582525],[51.432339,35.581994],[51.436872,35.580217],[51.441908,35.581037],[51.446074,35.580966],[51.44751,35.58104],[51.450819,35.582281],[51.451295,35.580019],[51.450624,35.578391],[51.448993,35.579282],[51.44858,35.577409],[51.45104,35.577214],[51.456489,35.579069],[51.458991,35.575585],[51.459932,35.575914],[51.460997,35.573747],[51.462753,35.573333],[51.464467,35.572387],[51.466626,35.568207],[51.470456,35.568615],[51.471947,35.569125],[51.472136,35.569624],[51.470033,35.571175],[51.468692,35.573817],[51.466296,35.577015],[51.464316,35.580658],[51.463083,35.584019],[51.461257,35.58687],[51.459651,35.589691],[51.455254,35.596877],[51.454877,35.59953],[51.456073,35.605701],[51.45632,35.607128],[51.456049,35.608379],[51.456043,35.609324],[51.456616,35.610212]]]}},{"type":"Feature","properties":{"osm_id":6729505,"district":21,"name":"منطقه ۲۱ شهر تهران","name_en":"District 21","center_lat":35.71096,"center_lng":51.213775},"geometry":{"type":"Polygon","coordinates":[[[51.12367,35.732958],[51.128369,35.726792],[51.132559,35.722704],[51.138902,35.717769],[51.142483,35.715751],[51.152016,35.712187],[51.162552,35.708381],[51.179434,35.704349],[51.183454,35.703118],[51.196675,35.697845],[51.202083,35.695683],[51.227682,35.685456],[51.2278,35.684583],[51.23335,35.683573],[51.238136,35.682044],[51.241389,35.681495],[51.260876,35.67858],[51.269732,35.67723],[51.27871,35.676637],[51.278749,35.677906],[51.280165,35.68045],[51.28171,35.681322],[51.282354,35.682333],[51.283813,35.683989],[51.283749,35.684616],[51.2851,35.685836],[51.28628,35.686307],[51.287504,35.687945],[51.288276,35.691622],[51.289521,35.694167],[51.289778,35.695561],[51.289392,35.69699],[51.289993,35.697861],[51.289963,35.700924],[51.290529,35.705057],[51.290272,35.706904],[51.291495,35.707967],[51.291302,35.712462],[51.290851,35.713996],[51.29115,35.716372],[51.270823,35.715361],[51.266341,35.715149],[51.252447,35.714505],[51.247839,35.714767],[51.241152,35.715977],[51.233607,35.71741],[51.221634,35.718233],[51.214735,35.719221],[51.203314,35.722166],[51.1908,35.727019],[51.184648,35.729513],[51.181142,35.730917],[51.171738,35.734631],[51.16622,35.736852],[51.153622,35.74192],[51.145429,35.74433],[51.140108,35.744919],[51.133471,35.744609],[51.121781,35.742145],[51.118439,35.741871],[51.096895,35.744052],[51.09015,35.745639],[51.089222,35.742927],[51.093366,35.742069],[51.104756,35.739938],[51.113755,35.737488],[51.12367,35.732958]]]}},{"type":"Feature","properties":{"osm_id":6729506,"district":22,"name":"منطقه ۲۲ شهر تهران","name_en":"District 22","center_lat":35.751513,"center_lng":51.17399},"geometry":{"type":"Polygon","coordinates":[[[51.09015,35.745639],[51.096895,35.744052],[51.118439,35.741871],[51.121781,35.742145],[51.133471,35.744609],[51.140108,35.744919],[51.145429,35.74433],[51.153622,35.74192],[51.16622,35.736852],[51.171738,35.734631],[51.181142,35.730917],[51.184648,35.729513],[51.1908,35.727019],[51.203314,35.722166],[51.214735,35.719221],[51.221634,35.718233],[51.233607,35.71741],[51.241152,35.715977],[51.247839,35.714767],[51.252447,35.714505],[51.266341,35.715149],[51.270823,35.715361],[51.29115,35.716372],[51.289881,35.718855],[51.280611,35.730771],[51.275461,35.733593],[51.269109,35.739601],[51.267843,35.739306],[51.266298,35.742736],[51.265101,35.743112],[51.265974,35.746187],[51.268482,35.754609],[51.268037,35.755858],[51.268299,35.756291],[51.268557,35.757326],[51.266776,35.760725],[51.267066,35.761648],[51.266636,35.763468],[51.265016,35.765923],[51.263472,35.767463],[51.262623,35.770749],[51.256295,35.770474],[51.254843,35.769937],[51.250519,35.770385],[51.250443,35.771421],[51.24941,35.770721],[51.249278,35.770185],[51.247155,35.769281],[51.246902,35.767965],[51.245702,35.766554],[51.24334,35.765066],[51.242139,35.76588],[51.2396,35.766041],[51.238362,35.765622],[51.238237,35.76463],[51.232016,35.762519],[51.214296,35.763421],[51.214488,35.763959],[51.212338,35.764222],[51.203731,35.765374],[51.201979,35.765004],[51.20039,35.764023],[51.189538,35.76377],[51.182065,35.767946],[51.177246,35.768057],[51.172597,35.767183],[51.165585,35.765102],[51.162847,35.762864],[51.161902,35.761298],[51.155333,35.761105],[51.140706,35.756591],[51.127354,35.753686],[51.12359,35.753752],[51.11968,35.754828],[51.114396,35.752815],[51.110059,35.752304],[51.110772,35.751435],[51.110179,35.750815],[51.109334,35.750695],[51.109502,35.751583],[51.108252,35.75176],[51.107895,35.751213],[51.106806,35.751283],[51.106836,35.752812],[51.105221,35.752044],[51.104777,35.753553],[51.104979,35.754277],[51.103826,35.754572],[51.103725,35.75372],[51.103247,35.753759],[51.103614,35.752743],[51.10331,35.752401],[51.102473,35.752467],[51.101898,35.751471],[51.101282,35.751933],[51.101521,35.753295],[51.101187,35.753424],[51.1005,35.752746],[51.099546,35.753374],[51.099624,35.753932],[51.098492,35.754042],[51.098934,35.754836],[51.097552,35.754426],[51.097155,35.755643],[51.097575,35.755814],[51.097547,35.756272],[51.097367,35.756027],[51.096747,35.756916],[51.096473,35.755791],[51.095858,35.756276],[51.09602,35.757179],[51.095158,35.757406],[51.094704,35.757106],[51.094194,35.757769],[51.09347,35.755918],[51.092078,35.748836],[51.09015,35.745639]]]}}]}