{"type":"FeatureCollection","features":[{"type":"Feature","properties":{"district":21,"code":"21-east","side":"east","title":"منطقه ۲۱ - شرق (از کرمان‌خودرو و داروپخش به شرق)"},"geometry":{"type":"Polygon","coordinates":[[[51.153622,35.74192],[51.16622,35.736852],[51.171738,35.734631],[51.181142,35.730917],[51.184648,35.729513],[51.1908,35.727019],[51.203314,35.722166],[51.214735,35.719221],[51.221634,35.718233],[51.233607,35.71741],[51.241152,35.715977],[51.247839,35.714767],[51.252447,35.714505],[51.266341,35.715149],[51.270823,35.715361],[51.29115,35.716372],[51.290851,35.713996],[51.291302,35.712462],[51.291495,35.707967],[51.290272,35.706904],[51.290529,35.705057],[51.289963,35.700924],[51.289993,35.697861],[51.289392,35.69699],[51.289778,35.695561],[51.289521,35.694167],[51.288276,35.691622],[51.287504,35.687945],[51.28628,35.686307],[51.2851,35.685836],[51.283749,35.684616],[51.283813,35.683989],[51.282354,35.682333],[51.28171,35.681322],[51.280165,35.68045],[51.278749,35.677906],[51.27871,35.676637],[51.269732,35.67723],[51.260876,35.67858],[51.241389,35.681495],[51.238136,35.682044],[51.23335,35.683573],[51.2278,35.684583],[51.227682,35.685456],[51.202083,35.695683],[51.196675,35.697845],[51.183454,35.703118],[51.179434,35.704349],[51.162552,35.708381],[51.152109,35.712153],[51.156479,35.719546],[51.1584,35.723266],[51.158614,35.724246],[51.158552,35.725149],[51.158339,35.725602],[51.149008,35.727403],[51.149041,35.727572],[51.14928,35.727606],[51.149403,35.72777],[51.152553,35.738917],[51.153411,35.741769],[51.153564,35.741937],[51.153622,35.74192]]]}},{"type":"Feature","properties":{"district":21,"code":"21-west","side":"west","title":"منطقه ۲۱ - غرب (غرب کرمان‌خودرو و داروپخش)"},"geometry":{"type":"Polygon","coordinates":[[[51.152016,35.712187],[51.142483,35.715751],[51.138902,35.717769],[51.132559,35.722704],[51.128369,35.726792],[51.12367,35.732958],[51.113755,35.737488],[51.104756,35.739938],[51.093366,35.742069],[51.089222,35.742927],[51.09015,35.745639],[51.096895,35.744052],[51.118439,35.741871],[51.121781,35.742145],[51.133471,35.744609],[51.140108,35.744919],[51.145429,35.74433],[51.153564,35.741937],[51.153411,35.741769],[51.152553,35.738917],[51.149403,35.72777],[51.14928,35.727606],[51.149041,35.727572],[51.149008,35.727403],[51.158339,35.725602],[51.158552,35.725149],[51.158614,35.724246],[51.1584,35.723266],[51.156479,35.719546],[51.152109,35.712153],[51.152016,35.712187]]]}},{"type":"Feature","properties":{"district":22,"code":"22-east","side":"east","title":"منطقه ۲۲ - شرق (از اردستانی و بلوار کرمانشاه به شرق)"},"geometry":{"type":"Polygon","coordinates":[[[51.161902,35.761298],[51.162847,35.762864],[51.165585,35.765102],[51.172597,35.767183],[51.177246,35.768057],[51.182065,35.767946],[51.189538,35.76377],[51.20039,35.764023],[51.201979,35.765004],[51.203731,35.765374],[51.212338,35.764222],[51.214488,35.763959],[51.214296,35.763421],[51.232016,35.762519],[51.238237,35.76463],[51.238362,35.765622],[51.2396,35.766041],[51.242139,35.76588],[51.24334,35.765066],[51.245702,35.766554],[51.246902,35.767965],[51.247155,35.769281],[51.249278,35.770185],[51.24941,35.770721],[51.250443,35.771421],[51.250519,35.770385],[51.254843,35.769937],[51.256295,35.770474],[51.262623,35.770749],[51.263472,35.767463],[51.265016,35.765923],[51.266636,35.763468],[51.267066,35.761648],[51.266776,35.760725],[51.268557,35.757326],[51.268299,35.756291],[51.268037,35.755858],[51.268482,35.754609],[51.265974,35.746187],[51.265101,35.743112],[51.266298,35.742736],[51.267843,35.739306],[51.269109,35.739601],[51.275461,35.733593],[51.280611,35.730771],[51.289881,35.718855],[51.29115,35.716372],[51.270823,35.715361],[51.266341,35.715149],[51.252447,35.714505],[51.247839,35.714767],[51.241152,35.715977],[51.233607,35.71741],[51.221634,35.718233],[51.214735,35.719221],[51.203314,35.722166],[51.1908,35.727019],[51.184648,35.729513],[51.181142,35.730917],[51.171738,35.734631],[51.16622,35.736852],[51.153622,35.74192],[51.153564,35.741937],[51.156267,35.751191],[51.156191,35.7513],[51.150674,35.752285],[51.149535,35.752378],[51.144512,35.752478],[51.143629,35.752491],[51.143682,35.752691],[51.143762,35.75291],[51.14377,35.753527],[51.143583,35.755882],[51.143198,35.756849],[51.154124,35.760535],[51.156594,35.761135],[51.156626,35.761143],[51.161902,35.761298]]]}},{"type":"Feature","properties":{"district":22,"code":"22-west","side":"west","title":"منطقه ۲۲ - غرب (غرب اردستانی و بلوار کرمانشاه)"},"geometry":{"type":"Polygon","coordinates":[[[51.140108,35.744919],[51.133471,35.744609],[51.121781,35.742145],[51.118439,35.741871],[51.096895,35.744052],[51.09015,35.745639],[51.092078,35.748836],[51.09347,35.755918],[51.094194,35.757769],[51.094704,35.757106],[51.095158,35.757406],[51.09602,35.757179],[51.095858,35.756276],[51.096473,35.755791],[51.096747,35.756916],[51.097367,35.756027],[51.097547,35.756272],[51.097575,35.755814],[51.097155,35.755643],[51.097552,35.754426],[51.098934,35.754836],[51.098492,35.754042],[51.099624,35.753932],[51.099546,35.753374],[51.1005,35.752746],[51.101187,35.753424],[51.101521,35.753295],[51.101282,35.751933],[51.101898,35.751471],[51.102473,35.752467],[51.10331,35.752401],[51.103614,35.752743],[51.103247,35.753759],[51.103725,35.75372],[51.103826,35.754572],[51.104979,35.754277],[51.104777,35.753553],[51.105221,35.752044],[51.106836,35.752812],[51.106806,35.751283],[51.107895,35.751213],[51.108252,35.75176],[51.109502,35.751583],[51.109334,35.750695],[51.110179,35.750815],[51.110772,35.751435],[51.110059,35.752304],[51.114396,35.752815],[51.11968,35.754828],[51.12359,35.753752],[51.127354,35.753686],[51.140706,35.756591],[51.155333,35.761105],[51.156626,35.761143],[51.156594,35.761135],[51.154124,35.760535],[51.143198,35.756849],[51.143583,35.755882],[51.14377,35.753527],[51.143762,35.75291],[51.143682,35.752691],[51.143629,35.752491],[51.144512,35.752478],[51.149535,35.752378],[51.150674,35.752285],[51.156191,35.7513],[51.156267,35.751191],[51.153564,35.741937],[51.145429,35.74433],[51.140108,35.744919]]]}}]}